[{"OBJECT_NAME":"UHETSAT","OBJECT_ID":"2023-185E","EPOCH":"2026-03-09T22:39:26.455680","MEAN_MOTION":15.29797662,"ECCENTRICITY":0.00118435,"INCLINATION":97.3584,"RA_OF_ASC_NODE":137.3576,"ARG_OF_PERICENTER":307.7346,"MEAN_ANOMALY":52.2821,"EPHEMERIS_TYPE":0,"CLASSIFICATION_TYPE":"U","NORAD_CAT_ID":58466,"ELEMENT_SET_NO":999,"REV_AT_EPOCH":12611,"BSTAR":0.00030513019,"MEAN_MOTION_DOT":8.749e-5,"MEAN_MOTION_DDOT":0},{"OBJECT_NAME":"STARLINK-31611","OBJECT_ID":"2024-057F","EPOCH":"2026-03-08T15:19:59.022048","MEAN_MOTION":15.27577803,"ECCENTRICITY":0.00014261,"INCLINATION":42.9971,"RA_OF_ASC_NODE":193.4134,"ARG_OF_PERICENTER":288.4796,"MEAN_ANOMALY":71.5901,"EPHEMERIS_TYPE":0,"CLASSIFICATION_TYPE":"U","NORAD_CAT_ID":59325,"ELEMENT_SET_NO":999,"REV_AT_EPOCH":10967,"BSTAR":2.489476e-6,"MEAN_MOTION_DOT":-1.94e-6,"MEAN_MOTION_DDOT":0}]
